[
  {
    "COMMENT": "GENERATED VIA SPACETRACK.ORG API",
    "ORIGINATOR": "18 SPCS",
    "NORAD_CAT_ID": "39086",
    "OBJECT_NAME": "SARAL",
    "OBJECT_TYPE": "PAYLOAD",
    "CLASSIFICATION_TYPE": "U",
    "INTLDES": "13009A",
    "EPOCH": "2023-08-27 10:15:17",
    "EPOCH_MICROSECONDS": "539776",
    "MEAN_MOTION": "14.32250613",
    "ECCENTRICITY": "0.0003065",
    "INCLINATION": "98.5496",
    "RA_OF_ASC_NODE": "63.686",
    "ARG_OF_PERICENTER": "80.1311",
    "MEAN_ANOMALY": "280.0219",
    "EPHEMERIS_TYPE": "0",
    "ELEMENT_SET_NO": "999",
    "REV_AT_EPOCH": "54888",
    "BSTAR": "0.000072816",
    "MEAN_MOTION_DOT": "0.00000153",
    "MEAN_MOTION_DDOT": "0",
    "FILE": "3990390",
    "TLE_LINE0": "0 SARAL",
    "TLE_LINE1": "1 39086U 13009A   23239.42728634  .00000153  00000-0  72816-4 0  9991",
    "TLE_LINE2": "2 39086  98.5496  63.6860 0003065  80.1311 280.0219 14.32250613548888",
    "OBJECT_ID": "2013-009A",
    "OBJECT_NUMBER": "39086",
    "SEMIMAJOR_AXIS": "7162.355",
    "PERIOD": "100.541",
    "APOGEE": "786.415",
    "PERIGEE": "782.025",
    "DECAYED": "0"
  },
  {
    "COMMENT": "GENERATED VIA SPACETRACK.ORG API",
    "ORIGINATOR": "18 SPCS",
    "NORAD_CAT_ID": "39086",
    "OBJECT_NAME": "SARAL",
    "OBJECT_TYPE": "PAYLOAD",
    "CLASSIFICATION_TYPE": "U",
    "INTLDES": "13009A",
    "EPOCH": "2023-08-27 21:59:28",
    "EPOCH_MICROSECONDS": "981824",
    "MEAN_MOTION": "14.32250708",
    "ECCENTRICITY": "0.0003064",
    "INCLINATION": "98.5497",
    "RA_OF_ASC_NODE": "64.1681",
    "ARG_OF_PERICENTER": "79.2326",
    "MEAN_ANOMALY": "280.9203",
    "EPHEMERIS_TYPE": "0",
    "ELEMENT_SET_NO": "999",
    "REV_AT_EPOCH": "54895",
    "BSTAR": "0.000066703",
    "MEAN_MOTION_DOT": "0.00000136",
    "MEAN_MOTION_DDOT": "0",
    "FILE": "3990698",
    "TLE_LINE0": "0 SARAL",
    "TLE_LINE1": "1 39086U 13009A   23239.91630766  .00000136  00000-0  66703-4 0  9992",
    "TLE_LINE2": "2 39086  98.5497  64.1681 0003064  79.2326 280.9203 14.32250708548955",
    "OBJECT_ID": "2013-009A",
    "OBJECT_NUMBER": "39086",
    "SEMIMAJOR_AXIS": "7162.354",
    "PERIOD": "100.541",
    "APOGEE": "786.414",
    "PERIGEE": "782.025",
    "DECAYED": "0"
  },
  {
    "COMMENT": "GENERATED VIA SPACETRACK.ORG API",
    "ORIGINATOR": "18 SPCS",
    "NORAD_CAT_ID": "39086",
    "OBJECT_NAME": "SARAL",
    "OBJECT_TYPE": "PAYLOAD",
    "CLASSIFICATION_TYPE": "U",
    "INTLDES": "13009A",
    "EPOCH": "2023-08-28 03:01:16",
    "EPOCH_MICROSECONDS": "738752",
    "MEAN_MOTION": "14.32250779",
    "ECCENTRICITY": "0.0003062",
    "INCLINATION": "98.5497",
    "RA_OF_ASC_NODE": "64.3747",
    "ARG_OF_PERICENTER": "78.8498",
    "MEAN_ANOMALY": "281.303",
    "EPHEMERIS_TYPE": "0",
    "ELEMENT_SET_NO": "999",
    "REV_AT_EPOCH": "54898",
    "BSTAR": "0.000066908",
    "MEAN_MOTION_DOT": "0.00000137",
    "MEAN_MOTION_DDOT": "0",
    "FILE": "3990769",
    "TLE_LINE0": "0 SARAL",
    "TLE_LINE1": "1 39086U 13009A   23240.12588818  .00000137  00000-0  66908-4 0  9995",
    "TLE_LINE2": "2 39086  98.5497  64.3747 0003062  78.8498 281.3030 14.32250779548987",
    "OBJECT_ID": "2013-009A",
    "OBJECT_NUMBER": "39086",
    "SEMIMAJOR_AXIS": "7162.354",
    "PERIOD": "100.541",
    "APOGEE": "786.412",
    "PERIGEE": "782.026",
    "DECAYED": "0"
  },
  {
    "COMMENT": "GENERATED VIA SPACETRACK.ORG API",
    "ORIGINATOR": "18 SPCS",
    "NORAD_CAT_ID": "39086",
    "OBJECT_NAME": "SARAL",
    "OBJECT_TYPE": "PAYLOAD",
    "CLASSIFICATION_TYPE": "U",
    "INTLDES": "13009A",
    "EPOCH": "2023-08-28 19:47:15",
    "EPOCH_MICROSECONDS": "917856",
    "MEAN_MOTION": "14.32251047",
    "ECCENTRICITY": "0.0003055",
    "INCLINATION": "98.5496",
    "RA_OF_ASC_NODE": "65.0634",
    "ARG_OF_PERICENTER": "77.6856",
    "MEAN_ANOMALY": "282.467",
    "EPHEMERIS_TYPE": "0",
    "ELEMENT_SET_NO": "999",
    "REV_AT_EPOCH": "54908",
    "BSTAR": "0.00006855",
    "MEAN_MOTION_DOT": "0.00000141",
    "MEAN_MOTION_DDOT": "0",
    "FILE": "3991628",
    "TLE_LINE0": "0 SARAL",
    "TLE_LINE1": "1 39086U 13009A   23240.82448979  .00000141  00000-0  68550-4 0  9995",
    "TLE_LINE2": "2 39086  98.5496  65.0634 0003055  77.6856 282.4670 14.32251047549089",
    "OBJECT_ID": "2013-009A",
    "OBJECT_NUMBER": "39086",
    "SEMIMAJOR_AXIS": "7162.353",
    "PERIOD": "100.541",
    "APOGEE": "786.406",
    "PERIGEE": "782.030",
    "DECAYED": "0"
  },
  {
    "COMMENT": "GENERATED VIA SPACETRACK.ORG API",
    "ORIGINATOR": "18 SPCS",
    "NORAD_CAT_ID": "39086",
    "OBJECT_NAME": "SARAL",
    "OBJECT_TYPE": "PAYLOAD",
    "CLASSIFICATION_TYPE": "U",
    "INTLDES": "13009A",
    "EPOCH": "2023-08-29 09:12:03",
    "EPOCH_MICROSECONDS": "255264",
    "MEAN_MOTION": "14.32251242",
    "ECCENTRICITY": "0.0003043",
    "INCLINATION": "98.5496",
    "RA_OF_ASC_NODE": "65.6143",
    "ARG_OF_PERICENTER": "76.6637",
    "MEAN_ANOMALY": "283.4886",
    "EPHEMERIS_TYPE": "0",
    "ELEMENT_SET_NO": "999",
    "REV_AT_EPOCH": "54916",
    "BSTAR": "0.00006772",
    "MEAN_MOTION_DOT": "0.00000139",
    "MEAN_MOTION_DDOT": "0",
    "FILE": "3992037",
    "TLE_LINE0": "0 SARAL",
    "TLE_LINE1": "1 39086U 13009A   23241.38337101  .00000139  00000-0  67720-4 0  9996",
    "TLE_LINE2": "2 39086  98.5496  65.6143 0003043  76.6637 283.4886 14.32251242549169",
    "OBJECT_ID": "2013-009A",
    "OBJECT_NUMBER": "39086",
    "SEMIMAJOR_AXIS": "7162.353",
    "PERIOD": "100.541",
    "APOGEE": "786.397",
    "PERIGEE": "782.038",
    "DECAYED": "0"
  },
  {
    "COMMENT": "GENERATED VIA SPACETRACK.ORG API",
    "ORIGINATOR": "18 SPCS",
    "NORAD_CAT_ID": "39086",
    "OBJECT_NAME": "SARAL",
    "OBJECT_TYPE": "PAYLOAD",
    "CLASSIFICATION_TYPE": "U",
    "INTLDES": "13009A",
    "EPOCH": "2023-08-29 20:56:14",
    "EPOCH_MICROSECONDS": "668800",
    "MEAN_MOTION": "14.32251454",
    "ECCENTRICITY": "0.0003038",
    "INCLINATION": "98.5497",
    "RA_OF_ASC_NODE": "66.0964",
    "ARG_OF_PERICENTER": "75.7447",
    "MEAN_ANOMALY": "284.4074",
    "EPHEMERIS_TYPE": "0",
    "ELEMENT_SET_NO": "999",
    "REV_AT_EPOCH": "54923",
    "BSTAR": "0.000068571",
    "MEAN_MOTION_DOT": "0.00000141",
    "MEAN_MOTION_DDOT": "0",
    "FILE": "3992439",
    "TLE_LINE0": "0 SARAL",
    "TLE_LINE1": "1 39086U 13009A   23241.87239200  .00000141  00000-0  68571-4 0  9999",
    "TLE_LINE2": "2 39086  98.5497  66.0964 0003038  75.7447 284.4074 14.32251454549232",
    "OBJECT_ID": "2013-009A",
    "OBJECT_NUMBER": "39086",
    "SEMIMAJOR_AXIS": "7162.352",
    "PERIOD": "100.541",
    "APOGEE": "786.393",
    "PERIGEE": "782.041",
    "DECAYED": "0"
  },
  {
    "COMMENT": "GENERATED VIA SPACETRACK.ORG API",
    "ORIGINATOR": "18 SPCS",
    "NORAD_CAT_ID": "39086",
    "OBJECT_NAME": "SARAL",
    "OBJECT_TYPE": "PAYLOAD",
    "CLASSIFICATION_TYPE": "U",
    "INTLDES": "13009A",
    "EPOCH": "2023-08-30 10:21:01",
    "EPOCH_MICROSECONDS": "992384",
    "MEAN_MOTION": "14.32251632",
    "ECCENTRICITY": "0.0003027",
    "INCLINATION": "98.5496",
    "RA_OF_ASC_NODE": "66.6473",
    "ARG_OF_PERICENTER": "74.6766",
    "MEAN_ANOMALY": "285.4752",
    "EPHEMERIS_TYPE": "0",
    "ELEMENT_SET_NO": "999",
    "REV_AT_EPOCH": "54931",
    "BSTAR": "0.000066134",
    "MEAN_MOTION_DOT": "0.00000135",
    "MEAN_MOTION_DDOT": "0",
    "FILE": "3992805",
    "TLE_LINE0": "0 SARAL",
    "TLE_LINE1": "1 39086U 13009A   23242.43127306  .00000135  00000-0  66134-4 0  9991",
    "TLE_LINE2": "2 39086  98.5496  66.6473 0003027  74.6766 285.4752 14.32251632549313",
    "OBJECT_ID": "2013-009A",
    "OBJECT_NUMBER": "39086",
    "SEMIMAJOR_AXIS": "7162.351",
    "PERIOD": "100.541",
    "APOGEE": "786.384",
    "PERIGEE": "782.048",
    "DECAYED": "0"
  },
  {
    "COMMENT": "GENERATED VIA SPACETRACK.ORG API",
    "ORIGINATOR": "18 SPCS",
    "NORAD_CAT_ID": "39086",
    "OBJECT_NAME": "SARAL",
    "OBJECT_TYPE": "PAYLOAD",
    "CLASSIFICATION_TYPE": "U",
    "INTLDES": "13009A",
    "EPOCH": "2023-08-30 20:24:37",
    "EPOCH_MICROSECONDS": "481184",
    "MEAN_MOTION": "14.32251802",
    "ECCENTRICITY": "0.0003026",
    "INCLINATION": "98.5497",
    "RA_OF_ASC_NODE": "67.0606",
    "ARG_OF_PERICENTER": "73.9168",
    "MEAN_ANOMALY": "286.2348",
    "EPHEMERIS_TYPE": "0",
    "ELEMENT_SET_NO": "999",
    "REV_AT_EPOCH": "54937",
    "BSTAR": "0.000067338",
    "MEAN_MOTION_DOT": "0.00000138",
    "MEAN_MOTION_DDOT": "0",
    "FILE": "3993321",
    "TLE_LINE0": "0 SARAL",
    "TLE_LINE1": "1 39086U 13009A   23242.85043381  .00000138  00000-0  67338-4 0  9997",
    "TLE_LINE2": "2 39086  98.5497  67.0606 0003026  73.9168 286.2348 14.32251802549379",
    "OBJECT_ID": "2013-009A",
    "OBJECT_NUMBER": "39086",
    "SEMIMAJOR_AXIS": "7162.351",
    "PERIOD": "100.541",
    "APOGEE": "786.383",
    "PERIGEE": "782.048",
    "DECAYED": "0"
  },
  {
    "COMMENT": "GENERATED VIA SPACETRACK.ORG API",
    "ORIGINATOR": "18 SPCS",
    "NORAD_CAT_ID": "39086",
    "OBJECT_NAME": "SARAL",
    "OBJECT_TYPE": "PAYLOAD",
    "CLASSIFICATION_TYPE": "U",
    "INTLDES": "13009A",
    "EPOCH": "2023-08-31 11:30:00",
    "EPOCH_MICROSECONDS": "706176",
    "MEAN_MOTION": "14.32252031",
    "ECCENTRICITY": "0.0003013",
    "INCLINATION": "98.5497",
    "RA_OF_ASC_NODE": "67.6803",
    "ARG_OF_PERICENTER": "72.7219",
    "MEAN_ANOMALY": "287.4295",
    "EPHEMERIS_TYPE": "0",
    "ELEMENT_SET_NO": "999",
    "REV_AT_EPOCH": "54946",
    "BSTAR": "0.000066714",
    "MEAN_MOTION_DOT": "0.00000136",
    "MEAN_MOTION_DDOT": "0",
    "FILE": "3993704",
    "TLE_LINE0": "0 SARAL",
    "TLE_LINE1": "1 39086U 13009A   23243.47917484  .00000136  00000-0  66714-4 0  9995",
    "TLE_LINE2": "2 39086  98.5497  67.6803 0003013  72.7219 287.4295 14.32252031549463",
    "OBJECT_ID": "2013-009A",
    "OBJECT_NUMBER": "39086",
    "SEMIMAJOR_AXIS": "7162.350",
    "PERIOD": "100.541",
    "APOGEE": "786.373",
    "PERIGEE": "782.057",
    "DECAYED": "0"
  }
]